[{"OBJECT_NAME":"FORTE","OBJECT_ID":"1997-047A","EPOCH":"2026-03-09T21:41:12.798240","MEAN_MOTION":14.27898785,"ECCENTRICITY":0.00196357,"INCLINATION":69.9517,"RA_OF_ASC_NODE":238.2652,"ARG_OF_PERICENTER":49.0734,"MEAN_ANOMALY":311.2084,"EPHEMERIS_TYPE":0,"CLASSIFICATION_TYPE":"U","NORAD_CAT_ID":24920,"ELEMENT_SET_NO":999,"REV_AT_EPOCH":48451,"BSTAR":0.0001374801,"MEAN_MOTION_DOT":2.83e-6,"MEAN_MOTION_DDOT":0},{"OBJECT_NAME":"FENGYUN 1C DEB","OBJECT_ID":"1999-025DHM","EPOCH":"2026-03-07T21:47:25.082880","MEAN_MOTION":14.19838142,"ECCENTRICITY":0.00261878,"INCLINATION":98.6034,"RA_OF_ASC_NODE":79.8155,"ARG_OF_PERICENTER":298.4832,"MEAN_ANOMALY":178.9051,"EPHEMERIS_TYPE":0,"CLASSIFICATION_TYPE":"U","NORAD_CAT_ID":33724,"ELEMENT_SET_NO":999,"REV_AT_EPOCH":95170,"BSTAR":0.00057361878,"MEAN_MOTION_DOT":1.177e-5,"MEAN_MOTION_DDOT":0}]
